EUTELSAT 21B            
1 38992U 12062B   25253.80723870  .00000127  00000+0  00000+0 0  9992
2 38992   0.0692 357.4560 0002727 176.0495 128.7623  1.00271998 47029
EUTELSAT 70B            
1 39020U 12069A   25253.67420479 -.00000046  00000+0  00000+0 0  9997
2 39020   0.0652 357.7681 0003886 175.4806 129.9101  1.00271833 46707
EUTELSAT 117 WEST A     
1 39122U 13012A   25253.69350284 -.00000016  00000+0  00000+0 0  9994
2 39122   0.0458 307.0508 0002921 229.6783 306.1020  1.00271895 45633
EUTELSAT 7B             
1 39163U 13022A   25253.80429203  .00000045  00000+0  00000+0 0  9992
2 39163   0.0688 341.8876 0000917  54.2599 250.4814  1.00269714 45153
EXPRESS-AT1             
1 39612U 14010A   25253.78117723  .00000076  00000+0  00000+0 0  9991
2 39612   0.0130 212.6817 0000241 258.5149 216.0937  1.00270383 42014
EXPRESS-AT2             
1 39613U 14010B   25253.34251273 -.00000283  00000+0  00000+0 0  9994
2 39613   0.0120 223.3364 0000471 221.5130 167.9364  1.00272041 41699
EUTELSAT 3B             
1 39773U 14030A   25253.80351203  .00000017  00000+0  00000+0 0  9992
2 39773   0.0637 354.3173 0004348 176.3875 111.7301  1.00271415 41267
EUTELSAT 115 WEST B     
1 40425U 15010B   25253.38378131 -.00000027  00000+0  00000+0 0  9991
2 40425   0.0128 307.5323 0000059  70.6021 354.7957  1.00272587 38587
